STARLINK-31370          
1 59520U 24073K   26068.03793613 -.00000162  00000+0  36224-5 0  9992
2 59520  43.0011 321.9034 0000716 322.7310  37.3491 15.27574936106076
NUSAT-48 (HENRIETTA LE*)
1 60498U 24149AG  26068.80506098  .00012988  00000+0  45212-3 0  9999
2 60498  97.3923 150.8264 0002754 263.3026  96.7901 15.29812597 86946
